[{"OBJECT_NAME":"AEHF-4 (USA 288)","OBJECT_ID":"2018-079A","EPOCH":"2026-03-04T03:44:38.901120","MEAN_MOTION":1.00273314,"ECCENTRICITY":0.0064087,"INCLINATION":1.4229,"RA_OF_ASC_NODE":354.6593,"ARG_OF_PERICENTER":359.115,"MEAN_ANOMALY":156.7713,"EPHEMERIS_TYPE":0,"CLASSIFICATION_TYPE":"U","NORAD_CAT_ID":43651,"ELEMENT_SET_NO":999,"REV_AT_EPOCH":2724,"BSTAR":0,"MEAN_MOTION_DOT":-2.87e-6,"MEAN_MOTION_DDOT":0},{"OBJECT_NAME":"BEIDOU-3 G1","OBJECT_ID":"2018-085A","EPOCH":"2026-03-04T05:00:51.808608","MEAN_MOTION":1.00268563,"ECCENTRICITY":0.0001342,"INCLINATION":2.8102,"RA_OF_ASC_NODE":100.3911,"ARG_OF_PERICENTER":24.9069,"MEAN_ANOMALY":251.9134,"EPHEMERIS_TYPE":0,"CLASSIFICATION_TYPE":"U","NORAD_CAT_ID":43683,"ELEMENT_SET_NO":999,"REV_AT_EPOCH":2700,"BSTAR":0,"MEAN_MOTION_DOT":-2.9e-6,"MEAN_MOTION_DDOT":0},{"OBJECT_NAME":"GSAT-29","OBJECT_ID":"2018-089A","EPOCH":"2026-03-04T02:19:02.273376","MEAN_MOTION":1.00271671,"ECCENTRICITY":0.00018,"INCLINATION":0.0587,"RA_OF_ASC_NODE":273.7699,"ARG_OF_PERICENTER":53.1441,"MEAN_ANOMALY":284.7046,"EPHEMERIS_TYPE":0,"CLASSIFICATION_TYPE":"U","NORAD_CAT_ID":43698,"ELEMENT_SET_NO":999,"REV_AT_EPOCH":2673,"BSTAR":0,"MEAN_MOTION_DOT":7.3e-7,"MEAN_MOTION_DDOT":0},{"OBJECT_NAME":"ES'HAIL 2","OBJECT_ID":"2018-090A","EPOCH":"2026-03-04T01:39:38.681280","MEAN_MOTION":1.00271139,"ECCENTRICITY":0.0002624,"INCLINATION":0.0179,"RA_OF_ASC_NODE":225.9576,"ARG_OF_PERICENTER":151.0528,"MEAN_ANOMALY":195.498,"EPHEMERIS_TYPE":0,"CLASSIFICATION_TYPE":"U","NORAD_CAT_ID":43700,"ELEMENT_SET_NO":999,"REV_AT_EPOCH":2662,"BSTAR":0,"MEAN_MOTION_DOT":1.31e-6,"MEAN_MOTION_DDOT":0},{"OBJECT_NAME":"GEO-KOMPSAT-2A","OBJECT_ID":"2018-100A","EPOCH":"2026-03-03T12:58:29.015040","MEAN_MOTION":1.00269693,"ECCENTRICITY":0.0001385,"INCLINATION":0.0217,"RA_OF_ASC_NODE":70.8317,"ARG_OF_PERICENTER":331.7632,"MEAN_ANOMALY":81.5654,"EPHEMERIS_TYPE":0,"CLASSIFICATION_TYPE":"U","NORAD_CAT_ID":43823,"ELEMENT_SET_NO":999,"REV_AT_EPOCH":2657,"BSTAR":0,"MEAN_MOTION_DOT":-3.59e-6,"MEAN_MOTION_DDOT":0},{"OBJECT_NAME":"GSAT-11","OBJECT_ID":"2018-100B","EPOCH":"2026-03-04T02:24:31.745952","MEAN_MOTION":1.00271778,"ECCENTRICITY":0.0004958,"INCLINATION":0.0866,"RA_OF_ASC_NODE":271.1876,"ARG_OF_PERICENTER":144.1365,"MEAN_ANOMALY":216.6413,"EPHEMERIS_TYPE":0,"CLASSIFICATION_TYPE":"U","NORAD_CAT_ID":43824,"ELEMENT_SET_NO":999,"REV_AT_EPOCH":2642,"BSTAR":0,"MEAN_MOTION_DOT":-8.9e-7,"MEAN_MOTION_DDOT":0},{"OBJECT_NAME":"GSAT-7A","OBJECT_ID":"2018-105A","EPOCH":"2026-03-04T02:21:17.057376","MEAN_MOTION":1.00270988,"ECCENTRICITY":0.0002014,"INCLINATION":0.0998,"RA_OF_ASC_NODE":277.6119,"ARG_OF_PERICENTER":54.2861,"MEAN_ANOMALY":287.9992,"EPHEMERIS_TYPE":0,"CLASSIFICATION_TYPE":"U","NORAD_CAT_ID":43864,"ELEMENT_SET_NO":999,"REV_AT_EPOCH":2639,"BSTAR":0,"MEAN_MOTION_DOT":1.4e-7,"MEAN_MOTION_DDOT":0},{"OBJECT_NAME":"COSMOS 2533","OBJECT_ID":"2018-107A","EPOCH":"2026-03-04T02:27:21.655008","MEAN_MOTION":1.00276001,"ECCENTRICITY":2.09e-5,"INCLINATION":0.014,"RA_OF_ASC_NODE":118.0202,"ARG_OF_PERICENTER":352.5098,"MEAN_ANOMALY":158.1396,"EPHEMERIS_TYPE":0,"CLASSIFICATION_TYPE":"U","NORAD_CAT_ID":43867,"ELEMENT_SET_NO":999,"REV_AT_EPOCH":2638,"BSTAR":0,"MEAN_MOTION_DOT":-5.2e-7,"MEAN_MOTION_DDOT":0},{"OBJECT_NAME":"BREEZE-M R/B","OBJECT_ID":"2018-107B","EPOCH":"2026-03-03T06:47:05.591040","MEAN_MOTION":0.90470159,"ECCENTRICITY":0.072151,"INCLINATION":7.1317,"RA_OF_ASC_NODE":75.0065,"ARG_OF_PERICENTER":309.6324,"MEAN_ANOMALY":44.373,"EPHEMERIS_TYPE":0,"CLASSIFICATION_TYPE":"U","NORAD_CAT_ID":43868,"ELEMENT_SET_NO":999,"REV_AT_EPOCH":2375,"BSTAR":0,"MEAN_MOTION_DOT":-2.1e-6,"MEAN_MOTION_DDOT":0},{"OBJECT_NAME":"TJS-3","OBJECT_ID":"2018-110A","EPOCH":"2026-03-03T12:02:40.893216","MEAN_MOTION":1.00349655,"ECCENTRICITY":0.0016761,"INCLINATION":2.2725,"RA_OF_ASC_NODE":81.7987,"ARG_OF_PERICENTER":344.9026,"MEAN_ANOMALY":1.857,"EPHEMERIS_TYPE":0,"CLASSIFICATION_TYPE":"U","NORAD_CAT_ID":43874,"ELEMENT_SET_NO":999,"REV_AT_EPOCH":2635,"BSTAR":0,"MEAN_MOTION_DOT":-2.29e-6,"MEAN_MOTION_DDOT":0},{"OBJECT_NAME":"ZHONGXING-2D","OBJECT_ID":"2019-001A","EPOCH":"2026-03-04T00:57:40.073760","MEAN_MOTION":1.00271986,"ECCENTRICITY":0.0001208,"INCLINATION":0.0543,"RA_OF_ASC_NODE":294.5592,"ARG_OF_PERICENTER":355.4733,"MEAN_ANOMALY":16.1902,"EPHEMERIS_TYPE":0,"CLASSIFICATION_TYPE":"U","NORAD_CAT_ID":43920,"ELEMENT_SET_NO":999,"REV_AT_EPOCH":5302,"BSTAR":0,"MEAN_MOTION_DOT":-3.5e-6,"MEAN_MOTION_DDOT":0},{"OBJECT_NAME":"ATLAS 5 CENTAUR DEB","OBJECT_ID":"2014-055N","EPOCH":"2026-03-03T07:57:02.699136","MEAN_MOTION":1.81439384,"ECCENTRICITY":0.5065212,"INCLINATION":19.8707,"RA_OF_ASC_NODE":147.3979,"ARG_OF_PERICENTER":155.5053,"MEAN_ANOMALY":240.6961,"EPHEMERIS_TYPE":0,"CLASSIFICATION_TYPE":"U","NORAD_CAT_ID":43959,"ELEMENT_SET_NO":999,"REV_AT_EPOCH":4974,"BSTAR":0,"MEAN_MOTION_DOT":-7.1e-7,"MEAN_MOTION_DDOT":0},{"OBJECT_NAME":"ATLAS 5 CENTAUR DEB","OBJECT_ID":"2014-055P","EPOCH":"2026-03-03T12:50:11.606784","MEAN_MOTION":1.81619649,"ECCENTRICITY":0.5083545,"INCLINATION":19.9523,"RA_OF_ASC_NODE":147.9159,"ARG_OF_PERICENTER":155.235,"MEAN_ANOMALY":241.4923,"EPHEMERIS_TYPE":0,"CLASSIFICATION_TYPE":"U","NORAD_CAT_ID":43960,"ELEMENT_SET_NO":999,"REV_AT_EPOCH":4972,"BSTAR":0,"MEAN_MOTION_DOT":-7.0e-7,"MEAN_MOTION_DDOT":0},{"OBJECT_NAME":"ATLAS 5 CENTAUR DEB","OBJECT_ID":"2014-055W","EPOCH":"2026-03-03T08:03:46.287360","MEAN_MOTION":1.82856293,"ECCENTRICITY":0.5048722,"INCLINATION":20.0785,"RA_OF_ASC_NODE":144.3198,"ARG_OF_PERICENTER":162.1354,"MEAN_ANOMALY":225.3193,"EPHEMERIS_TYPE":0,"CLASSIFICATION_TYPE":"U","NORAD_CAT_ID":43967,"ELEMENT_SET_NO":999,"REV_AT_EPOCH":5006,"BSTAR":0,"MEAN_MOTION_DOT":-8.0e-7,"MEAN_MOTION_DDOT":0},{"OBJECT_NAME":"ATLAS 5 CENTAUR DEB","OBJECT_ID":"2014-055X","EPOCH":"2026-03-04T03:14:01.425408","MEAN_MOTION":1.83130144,"ECCENTRICITY":0.5054706,"INCLINATION":20.1253,"RA_OF_ASC_NODE":141.8347,"ARG_OF_PERICENTER":166.4625,"MEAN_ANOMALY":214.8426,"EPHEMERIS_TYPE":0,"CLASSIFICATION_TYPE":"U","NORAD_CAT_ID":43968,"ELEMENT_SET_NO":999,"REV_AT_EPOCH":5015,"BSTAR":0,"MEAN_MOTION_DOT":-8.3e-7,"MEAN_MOTION_DDOT":0},{"OBJECT_NAME":"ATLAS 5 CENTAUR DEB","OBJECT_ID":"2014-055Y","EPOCH":"2026-02-23T20:16:58.440576","MEAN_MOTION":1.77735719,"ECCENTRICITY":0.50890534,"INCLINATION":19.3984,"RA_OF_ASC_NODE":160.4739,"ARG_OF_PERICENTER":129.2912,"MEAN_ANOMALY":288.0175,"EPHEMERIS_TYPE":0,"CLASSIFICATION_TYPE":"U","NORAD_CAT_ID":43969,"ELEMENT_SET_NO":999,"REV_AT_EPOCH":2935,"BSTAR":0,"MEAN_MOTION_DOT":-3.4e-7,"MEAN_MOTION_DDOT":0},{"OBJECT_NAME":"ATLAS 5 CENTAUR DEB","OBJECT_ID":"2014-055AL","EPOCH":"2026-03-01T09:43:14.082240","MEAN_MOTION":1.78790141,"ECCENTRICITY":0.51503857,"INCLINATION":19.7794,"RA_OF_ASC_NODE":148.7226,"ARG_OF_PERICENTER":149.5994,"MEAN_ANOMALY":254.2285,"EPHEMERIS_TYPE":0,"CLASSIFICATION_TYPE":"U","NORAD_CAT_ID":43981,"ELEMENT_SET_NO":999,"REV_AT_EPOCH":4885,"BSTAR":0,"MEAN_MOTION_DOT":-6.7e-7,"MEAN_MOTION_DDOT":0}]
