AEHF-4 (USA 288)        
1 43651U 18079A   26063.15600580 -.00000287  00000+0  00000+0 0  9992
2 43651   1.4229 354.6593 0064087 359.1150 156.7713  1.00273314 27249
BEIDOU-3 G1             
1 43683U 18085A   26063.20893297 -.00000290  00000+0  00000+0 0  9993
2 43683   2.8102 100.3911 0001342  24.9069 251.9134  1.00268563 27009
GSAT-29                 
1 43698U 18089A   26063.09655409  .00000073  00000+0  00000+0 0  9999
2 43698   0.0587 273.7699 0001800  53.1441 284.7046  1.00271671 26736
ES'HAIL 2               
1 43700U 18090A   26063.06919770  .00000131  00000+0  00000+0 0  9991
2 43700   0.0179 225.9576 0002624 151.0528 195.4980  1.00271139 26621
GEO-KOMPSAT-2A          
1 43823U 18100A   26062.54061360 -.00000359  00000+0  00000+0 0  9997
2 43823   0.0217  70.8317 0001385 331.7632  81.5654  1.00269693 26575
GSAT-11                 
1 43824U 18100B   26063.10036743 -.00000089  00000+0  00000+0 0  9998
2 43824   0.0866 271.1876 0004958 144.1365 216.6413  1.00271778 26425
GSAT-7A                 
1 43864U 18105A   26063.09811409  .00000014  00000+0  00000+0 0  9992
2 43864   0.0998 277.6119 0002014  54.2861 287.9992  1.00270988 26390
COSMOS 2533             
1 43867U 18107A   26063.10233397 -.00000052  00000+0  00000+0 0  9996
2 43867   0.0140 118.0202 0000209 352.5098 158.1396  1.00276001 26381
BREEZE-M R/B            
1 43868U 18107B   26062.28270360 -.00000210  00000+0  00000+0 0  9992
2 43868   7.1317  75.0065 0721510 309.6324  44.3730  0.90470159 23759
TJS-3                   
1 43874U 18110A   26062.50186219 -.00000229  00000+0  00000+0 0  9997
2 43874   2.2725  81.7987 0016761 344.9026   1.8570  1.00349655 26355
ZHONGXING-2D            
1 43920U 19001A   26063.04004715 -.00000350  00000+0  00000+0 0  9994
2 43920   0.0543 294.5592 0001208 355.4733  16.1902  1.00271986 53022
ATLAS 5 CENTAUR DEB     
1 43959U 14055N   26062.33128124 -.00000071  00000+0  00000+0 0  9992
2 43959  19.8707 147.3979 5065212 155.5053 240.6961  1.81439384 49742
ATLAS 5 CENTAUR DEB     
1 43960U 14055P   26062.53485656 -.00000070  00000+0  00000+0 0  9991
2 43960  19.9523 147.9159 5083545 155.2350 241.4923  1.81619649 49722
ATLAS 5 CENTAUR DEB     
1 43967U 14055W   26062.33595240 -.00000080  00000+0  00000+0 0  9998
2 43967  20.0785 144.3198 5048722 162.1354 225.3193  1.82856293 50063
ATLAS 5 CENTAUR DEB     
1 43968U 14055X   26063.13473872 -.00000083  00000+0  00000+0 0  9997
2 43968  20.1253 141.8347 5054706 166.4625 214.8426  1.83130144 50153
ATLAS 5 CENTAUR DEB     
1 43969U 14055Y   26054.84512084 -.00000034  00000+0  00000+0 0  9991
2 43969  19.3984 160.4739 5089053 129.2912 288.0175  1.77735719 29350
ATLAS 5 CENTAUR DEB     
1 43981U 14055AL  26060.40502410 -.00000067  00000+0  00000+0 0  9992
2 43981  19.7794 148.7226 5150385 149.5994 254.2285  1.78790141 48853
